{
  "type": "FeatureCollection",
  "features": [
    {
      "type": "Feature",
      "properties": {
        "norad_id": 44334,
        "name": "EUTELSAT 7C",
        "group": "eutelsat",
        "lat": 0.05038646261280553,
        "lon": -84.34630173680006,
        "alt_km": 35773.55734217353,
        "timestamp": "2025-12-25T11:37:44.093251+00:00",
        "meta_object_name": "EUTELSAT 7C",
        "meta_object_id": "2019-034B",
        "meta_epoch": "2025-12-24T14:50:38.546016",
        "meta_mean_motion": 1.00270796,
        "meta_eccentricity": 0.00031593,
        "meta_inclination": 0.0726,
        "meta_ra_of_asc_node": 177.7928,
        "meta_arg_of_pericenter": 79.9691,
        "meta_mean_anomaly": 65.2631,
        "meta_ephemeris_type": 0,
        "meta_classification_type": "U",
        "meta_norad_cat_id": 44334,
        "meta_element_set_no": 999,
        "meta_rev_at_epoch": 508,
        "meta_bstar": 0,
        "meta_mean_motion_dot": 6.9e-07,
        "meta_mean_motion_ddot": 0,
        "tle_line1": "1 44334U 19034B   25358.61850169  .00000069  00000+0  00000+0 0  9997",
        "tle_line2": "2 44334   0.0726 177.7928 0003159  79.9691  65.2631  1.00270796  5083"
      },
      "geometry": {
        "type": "Point",
        "coordinates": [
          -84.34630173680006,
          0.05038646261280553
        ]
      }
    },
    {
      "type": "Feature",
      "properties": {
        "norad_id": 44624,
        "name": "EUTELSAT 5 WEST B",
        "group": "eutelsat",
        "lat": -0.0804820861396299,
        "lon": -96.33354675015899,
        "alt_km": 35773.09265798319,
        "timestamp": "2025-12-25T11:37:44.093263+00:00",
        "meta_object_name": "EUTELSAT 5 WEST B",
        "meta_object_id": "2019-067A",
        "meta_epoch": "2025-12-24T22:38:38.755104",
        "meta_mean_motion": 1.00271314,
        "meta_eccentricity": 0.0003138,
        "meta_inclination": 0.0629,
        "meta_ra_of_asc_node": 343.8225,
        "meta_arg_of_pericenter": 288.8996,
        "meta_mean_anomaly": 155.6522,
        "meta_ephemeris_type": 0,
        "meta_classification_type": "U",
        "meta_norad_cat_id": 44624,
        "meta_element_set_no": 999,
        "meta_rev_at_epoch": 2269,
        "meta_bstar": 0,
        "meta_mean_motion_dot": -2.1e-07,
        "meta_mean_motion_ddot": 0,
        "tle_line1": "1 44624U 19067A   25358.94350411 -.00000021  00000+0  00000+0 0  9995",
        "tle_line2": "2 44624   0.0629 343.8225 0003138 288.8996 155.6522  1.00271314 22695"
      },
      "geometry": {
        "type": "Point",
        "coordinates": [
          -96.33354675015899,
          -0.0804820861396299
        ]
      }
    },
    {
      "type": "Feature",
      "properties": {
        "norad_id": 45027,
        "name": "EUTELSAT KONNECT",
        "group": "eutelsat",
        "lat": -0.021075228295589984,
        "lon": -84.13389574110863,
        "alt_km": 35780.37744299521,
        "timestamp": "2025-12-25T11:37:44.093275+00:00",
        "meta_object_name": "EUTELSAT KONNECT",
        "meta_object_id": "2020-005B",
        "meta_epoch": "2025-12-24T14:50:46.034304",
        "meta_mean_motion": 1.00269906,
        "meta_eccentricity": 0.00014622,
        "meta_inclination": 0.0704,
        "meta_ra_of_asc_node": 94.2724,
        "meta_arg_of_pericenter": 186.2921,
        "meta_mean_anomaly": 42.7194,
        "meta_ephemeris_type": 0,
        "meta_classification_type": "U",
        "meta_norad_cat_id": 45027,
        "meta_element_set_no": 999,
        "meta_rev_at_epoch": 2258,
        "meta_bstar": 0,
        "meta_mean_motion_dot": 7e-07,
        "meta_mean_motion_ddot": 0,
        "tle_line1": "1 45027U 20005B   25358.61858836  .00000070  00000+0  00000+0 0  9998",
        "tle_line2": "2 45027   0.0704  94.2724 0001462 186.2921  42.7194  1.00269906 22588"
      },
      "geometry": {
        "type": "Point",
        "coordinates": [
          -84.13389574110863,
          -0.021075228295589984
        ]
      }
    },
    {
      "type": "Feature",
      "properties": {
        "norad_id": 49056,
        "name": "EUTELSAT QUANTUM",
        "group": "eutelsat",
        "lat": -0.027412591952807538,
        "lon": -43.60569381008609,
        "alt_km": 35774.09723857473,
        "timestamp": "2025-12-25T11:37:44.093287+00:00",
        "meta_object_name": "EUTELSAT QUANTUM",
        "meta_object_id": "2021-069B",
        "meta_epoch": "2025-12-24T23:35:55.741056",
        "meta_mean_motion": 1.00270986,
        "meta_eccentricity": 0.000348,
        "meta_inclination": 0.0115,
        "meta_ra_of_asc_node": 15.7317,
        "meta_arg_of_pericenter": 266.2745,
        "meta_mean_anomaly": 213.4278,
        "meta_ephemeris_type": 0,
        "meta_classification_type": "U",
        "meta_norad_cat_id": 49056,
        "meta_element_set_no": 999,
        "meta_rev_at_epoch": 1618,
        "meta_bstar": 0,
        "meta_mean_motion_dot": 1.47e-06,
        "meta_mean_motion_ddot": 0,
        "tle_line1": "1 49056U 21069B   25358.98328404  .00000147  00000+0  00000+0 0  9993",
        "tle_line2": "2 49056   0.0115  15.7317 0003480 266.2745 213.4278  1.00270986 16180"
      },
      "geometry": {
        "type": "Point",
        "coordinates": [
          -43.60569381008609,
          -0.027412591952807538
        ]
      }
    },
    {
      "type": "Feature",
      "properties": {
        "norad_id": 53765,
        "name": "EUTELSAT KONNECT VHTS",
        "group": "eutelsat",
        "lat": -0.011849927377030368,
        "lon": -88.60752735958222,
        "alt_km": 35777.53461324929,
        "timestamp": "2025-12-25T11:37:44.093299+00:00",
        "meta_object_name": "EUTELSAT KONNECT VHTS",
        "meta_object_id": "2022-110A",
        "meta_epoch": "2025-12-24T21:40:21.809280",
        "meta_mean_motion": 1.00267478,
        "meta_eccentricity": 0.0002493,
        "meta_inclination": 0.0601,
        "meta_ra_of_asc_node": 98.2899,
        "meta_arg_of_pericenter": 150.2235,
        "meta_mean_anomaly": 172.9674,
        "meta_ephemeris_type": 0,
        "meta_classification_type": "U",
        "meta_norad_cat_id": 53765,
        "meta_element_set_no": 999,
        "meta_rev_at_epoch": 507,
        "meta_bstar": 0,
        "meta_mean_motion_dot": 3.8e-07,
        "meta_mean_motion_ddot": 0,
        "tle_line1": "1 53765U 22110A   25358.90303020  .00000038  00000+0  00000+0 0  9991",
        "tle_line2": "2 53765   0.0601  98.2899 0002493 150.2235 172.9674  1.00267478  5079"
      },
      "geometry": {
        "type": "Point",
        "coordinates": [
          -88.60752735958222,
          -0.011849927377030368
        ]
      }
    },
    {
      "type": "Feature",
      "properties": {
        "norad_id": 54048,
        "name": "EUTELSAT HOTBIRD 13F",
        "group": "eutelsat",
        "lat": -0.02510550139998971,
        "lon": -78.36186604801476,
        "alt_km": 35784.659623199535,
        "timestamp": "2025-12-25T11:37:44.093310+00:00",
        "meta_object_name": "EUTELSAT HOTBIRD 13F",
        "meta_object_id": "2022-134A",
        "meta_epoch": "2025-12-24T16:35:06.042624",
        "meta_mean_motion": 1.00270762,
        "meta_eccentricity": 0.00022006,
        "meta_inclination": 0.055,
        "meta_ra_of_asc_node": 289.1731,
        "meta_arg_of_pericenter": 72.2821,
        "meta_mean_anomaly": 353.7761,
        "meta_ephemeris_type": 0,
        "meta_classification_type": "U",
        "meta_norad_cat_id": 54048,
        "meta_element_set_no": 999,
        "meta_rev_at_epoch": 1162,
        "meta_bstar": 0,
        "meta_mean_motion_dot": 1.08e-06,
        "meta_mean_motion_ddot": 0,
        "tle_line1": "1 54048U 22134A   25358.69104216  .00000108  00000+0  00000+0 0  9992",
        "tle_line2": "2 54048   0.0550 289.1731 0002200  72.2821 353.7761  1.00270762 11627"
      },
      "geometry": {
        "type": "Point",
        "coordinates": [
          -78.36186604801476,
          -0.02510550139998971
        ]
      }
    },
    {
      "type": "Feature",
      "properties": {
        "norad_id": 54225,
        "name": "EUTELSAT HOTBIRD 13G",
        "group": "eutelsat",
        "lat": 0.010997087723803055,
        "lon": -78.3297145774826,
        "alt_km": 35788.81567522568,
        "timestamp": "2025-12-25T11:37:44.093322+00:00",
        "meta_object_name": "EUTELSAT HOTBIRD 13G",
        "meta_object_id": "2022-146A",
        "meta_epoch": "2025-12-24T00:28:38.654112",
        "meta_mean_motion": 1.00268836,
        "meta_eccentricity": 0.00017131,
        "meta_inclination": 0.0535,
        "meta_ra_of_asc_node": 227.8066,
        "meta_arg_of_pericenter": 307.349,
        "meta_mean_anomaly": 297.8001,
        "meta_ephemeris_type": 0,
        "meta_classification_type": "U",
        "meta_norad_cat_id": 54225,
        "meta_element_set_no": 999,
        "meta_rev_at_epoch": 571,
        "meta_bstar": 0,
        "meta_mean_motion_dot": 1.08e-06,
        "meta_mean_motion_ddot": 0,
        "tle_line1": "1 54225U 22146A   25358.01989183  .00000108  00000+0  00000+0 0  9992",
        "tle_line2": "2 54225   0.0535 227.8066 0001713 307.3490 297.8001  1.00268836  5716"
      },
      "geometry": {
        "type": "Point",
        "coordinates": [
          -78.3297145774826,
          0.010997087723803055
        ]
      }
    }
  ]
}